{
    "links": {
        "self": "http://www.neowsapp.com/rest/v1/neo/3740932?api_key=iIulBulltgU6a56xZRHN4H3l9WmuAYTsLGpBGhQ2"
    },
    "id": "3740932",
    "neo_reference_id": "3740932",
    "name": "(2016 BB15)",
    "designation": "2016 BB15",
    "nasa_jpl_url": "http://ssd.jpl.nasa.gov/sbdb.cgi?sstr=3740932",
    "absolute_magnitude_h": 24.4,
    "estimated_diameter": {
        "kilometers": {
            "estimated_diameter_min": 0.0350392641,
            "estimated_diameter_max": 0.0783501764
        },
        "meters": {
            "estimated_diameter_min": 35.0392641108,
            "estimated_diameter_max": 78.3501764334
        },
        "miles": {
            "estimated_diameter_min": 0.0217723826,
            "estimated_diameter_max": 0.0486845275
        },
        "feet": {
            "estimated_diameter_min": 114.9582192654,
            "estimated_diameter_max": 257.0543928497
        }
    },
    "is_potentially_hazardous_asteroid": false,
    "close_approach_data": [
        {
            "close_approach_date": "2016-01-14",
            "close_approach_date_full": "2016-Jan-14 11:42",
            "epoch_date_close_approach": 1452771720000,
            "relative_velocity": {
                "kilometers_per_second": "8.6612533816",
                "kilometers_per_hour": "31180.5121738367",
                "miles_per_hour": "19374.3576893487"
            },
            "miss_distance": {
                "astronomical": "0.0474557667",
                "lunar": "18.4602932463",
                "kilometers": "7099281.617536929",
                "miles": "4411289.0429464602"
            },
            "orbiting_body": "Earth"
        }
    ],
    "orbital_data": {
        "orbit_id": "10",
        "orbit_determination_date": "2017-04-06 08:28:52",
        "first_observation_date": "2016-01-29",
        "last_observation_date": "2016-02-11",
        "data_arc_in_days": 13,
        "observations_used": 80,
        "orbit_uncertainty": "8",
        "minimum_orbit_intersection": ".0206328",
        "jupiter_tisserand_invariant": "3.489",
        "epoch_osculation": "2457419.5",
        "eccentricity": ".5453326801142168",
        "semi_major_axis": "2.160146881148565",
        "inclination": "1.24503120899969",
        "ascending_node_longitude": "348.6702024514393",
        "orbital_period": "1159.640435802712",
        "perihelion_distance": ".9821481930114518",
        "perihelion_argument": "98.76664333445376",
        "aphelion_distance": "3.338145569285679",
        "perihelion_time": "2457382.316725317677",
        "mean_anomaly": "11.54321501075495",
        "mean_motion": ".3104410547315947",
        "equinox": "J2000",
        "orbit_class": {
            "orbit_class_type": "APO",
            "orbit_class_description": "Near-Earth asteroid orbits which cross the Earth’s orbit similar to that of 1862 Apollo",
            "orbit_class_range": "a (semi-major axis) > 1.0 AU; q (perihelion) < 1.017 AU"
        }
    },
    "is_sentry_object": false
}